
# Worst residual: 41.16 km
# MJD 60342.000000 (2024 Feb  2  0:00)
A112FqH = A112t8l
1 79944U 24999ZZY 24033.49919926  .00000000  00000-0  00000-0 0 22240
2 79944 034.4066 013.1277 6095958 324.3399 173.7259 00.99804099    06

# Worst residual: 40.80 km
# MJD 60343.000000 (2024 Feb  3  0:00)
A112FqH = A112t8l
1 79944U 24999ZZY 24034.49919926  .00000000  00000-0  00000-0 0 22241
2 79944 034.4640 013.0264 6115947 324.9073 172.9917 00.99802963    05

# Worst residual: 39.85 km
# MJD 60344.000000 (2024 Feb  4  0:00)
A112FqH = A112t8l
1 79944U 24999ZZY 24035.49919926  .00000000  00000-0  00000-0 0 22242
2 79944 034.5236 012.9339 6135672 325.4638 172.2563 00.99804108    01

# Worst residual: 37.80 km
# MJD 60345.000000 (2024 Feb  5  0:00)
A112FqH = A112t8l
1 79944U 24999ZZY 24036.49919926  .00000000  00000-0  00000-0 0 22243
2 79944 034.5815 012.8362 6155078 326.0250 171.5192 00.99804348    04

# Worst residual: 36.53 km
# MJD 60346.000000 (2024 Feb  6  0:00)
A112FqH = A112t8l
1 79944U 24999ZZY 24037.49919926  .00000000  00000-0  00000-0 0 22244
2 79944 034.6367 012.7379 6173861 326.5877 170.7771 00.99802619    07

# Worst residual: 34.42 km
# MJD 60347.000000 (2024 Feb  7  0:00)
A112FqH = A112t8l
1 79944U 24999ZZY 24038.49919926  .00000000  00000-0  00000-0 0 22245
2 79944 034.6946 012.6415 6192259 327.1497 170.0300 00.99802923    06

# Worst residual: 31.93 km
# MJD 60348.000000 (2024 Feb  8  0:00)
A112FqH = A112t8l
1 79944U 24999ZZY 24039.49919926  .00000000  00000-0  00000-0 0 22246
2 79944 034.7552 012.5474 6210148 327.7101 169.2792 00.99802165    03

# Worst residual: 29.83 km
# MJD 60349.000000 (2024 Feb  9  0:00)
A112FqH = A112t8l
1 79944U 24999ZZY 24040.49919926  .00000000  00000-0  00000-0 0 22248
2 79944 034.8117 012.4512 6227420 328.2726 168.5243 00.99804938    06

# Worst residual: 28.68 km
# MJD 60350.000000 (2024 Feb 10  0:00)
A112FqH = A112t8l
1 79944U 24999ZZY 24041.49919926  .00000000  00000-0  00000-0 0 22249
2 79944 034.8707 012.3576 6244116 328.8325 167.7677 00.99806794    06

# Worst residual: 29.44 km
# MJD 60351.000000 (2024 Feb 11  0:00)
A112FqH = A112t8l
1 79944U 24999ZZY 24042.49919926  .00000000  00000-0  00000-0 0 22240
2 79944 034.9299 012.2649 6260211 329.3906 167.0102 00.99809069    02

# Worst residual: 30.42 km
# MJD 60352.000000 (2024 Feb 12  0:00)
A112FqH = A112t8l
1 79944U 24999ZZY 24043.49919926  .00000000  00000-0  00000-0 0 22241
2 79944 034.9892 012.1733 6275734 329.9466 166.2524 00.99811505    04

# Worst residual: 32.06 km
# MJD 60353.000000 (2024 Feb 13  0:00)
A112FqH = A112t8l
1 79944U 24999ZZY 24044.49919926  .00000000  00000-0  00000-0 0 22242
2 79944 035.0488 012.0827 6290723 330.5006 165.4946 00.99813878    07

# Worst residual: 32.89 km
# MJD 60354.000000 (2024 Feb 14  0:00)
A112FqH = A112t8l
1 79944U 24999ZZY 24045.49919926  .00000000  00000-0  00000-0 0 22243
2 79944 035.1086 011.9949 6305724 331.0508 164.7372 00.99815860    04

# Worst residual: 35.83 km
# MJD 60355.000000 (2024 Feb 15  0:00)
A112FqH = A112t8l
1 79944U 24999ZZY 24046.49919926  .00000000  00000-0  00000-0 0 22244
2 79944 035.1686 011.9048 6319165 331.6033 163.9781 00.99818316    07

# Worst residual: 36.95 km
# MJD 60356.000000 (2024 Feb 16  0:00)
A112FqH = A112t8l
1 79944U 24999ZZY 24047.49919926  .00000000  00000-0  00000-0 0 22245
2 79944 035.2294 011.8144 6332655 332.1515 163.2233 00.99820451    07

# Worst residual: 39.33 km
# MJD 60357.000000 (2024 Feb 17  0:00)
A112FqH = A112t8l
1 79944U 24999ZZY 24048.49919926  .00000000  00000-0  00000-0 0 22246
2 79944 035.2887 011.7316 6345484 332.6988 162.4609 00.99822775    07

# Worst residual: 40.85 km
# MJD 60358.000000 (2024 Feb 18  0:00)
A112FqH = A112t8l
1 79944U 24999ZZY 24049.49919926  .00000000  00000-0  00000-0 0 22247
2 79944 035.3485 011.6468 6357867 333.2430 161.7031 00.99824886    02

# Worst residual: 42.26 km
# MJD 60359.000000 (2024 Feb 19  0:00)
A112FqH = A112t8l
1 79944U 24999ZZY 24050.49919926  .00000000  00000-0  00000-0 0 22249
2 79944 035.4082 011.5631 6369804 333.7847 160.9461 00.99826700    03

# Worst residual: 43.66 km
# MJD 60360.000000 (2024 Feb 20  0:00)
A112FqH = A112t8l
1 79944U 24999ZZY 24051.49919926  .00000000  00000-0  00000-0 0 22240
2 79944 035.4678 011.4805 6381367 334.3246 160.1891 00.99828154    08

# Worst residual: 45.13 km
# MJD 60361.000000 (2024 Feb 21  0:00)
A112FqH = A112t8l
1 79944U 24999ZZY 24052.49919926  .00000000  00000-0  00000-0 0 22241
2 79944 035.5273 011.3989 6392589 334.8636 159.4307 00.99829351    01

# Worst residual: 45.16 km
# MJD 60362.000000 (2024 Feb 22  0:00)
A112FqH = A112t8l
1 79944U 24999ZZY 24053.49919926  .00000000  00000-0  00000-0 0 22242
2 79944 035.5860 011.3225 6403825 335.3996 158.6728 00.99831802    09

# Worst residual: 48.34 km
# MJD 60363.000000 (2024 Feb 23  0:00)
A112FqH = A112t8l
1 79944U 24999ZZY 24054.49919926  .00000000  00000-0  00000-0 0 22243
2 79944 035.6464 011.2389 6413853 335.9417 157.9042 00.99832224    06

# Worst residual: 49.47 km
# MJD 60364.000000 (2024 Feb 24  0:00)
A112FqH = A112t8l
1 79944U 24999ZZY 24055.49919926  .00000000  00000-0  00000-0 0 22244
2 79944 035.7076 011.1659 6423956 336.4781 157.1360 00.99832926    04

# Worst residual: 51.56 km
# MJD 60365.000000 (2024 Feb 25  0:00)
A112FqH = A112t8l
1 79944U 24999ZZY 24056.49919926  .00000000  00000-0  00000-0 0 22245
2 79944 035.7649 011.0845 6432826 337.0202 156.3634 00.99837576    08

# Worst residual: 50.54 km
# MJD 60366.000000 (2024 Feb 26  0:00)
A112FqH = A112t8l
1 79944U 24999ZZY 24057.49919926  .00000000  00000-0  00000-0 0 22246
2 79944 035.8163 011.0166 6441367 337.5515 155.5949 00.99843486    05

# Worst residual: 54.37 km
# MJD 60367.000000 (2024 Feb 27  0:00)
A112FqH = A112t8l
1 79944U 24999ZZY 24058.49919926  .00000000  00000-0  00000-0 0 22247
2 79944 035.8812 010.9367 6448888 338.0917 154.8190 00.99844872    04

# Worst residual: 55.68 km
# MJD 60368.000000 (2024 Feb 28  0:00)
A112FqH = A112t8l
1 79944U 24999ZZY 24059.49919926  .00000000  00000-0  00000-0 0 22248
2 79944 035.9381 010.8653 6455915 338.6227 154.0493 00.99848339    02

# Worst residual: 55.47 km
# MJD 60369.000000 (2024 Feb 29  0:00)
A112FqH = A112t8l
1 79944U 24999ZZY 24060.49919926  .00000000  00000-0  00000-0 0 22240
2 79944 035.9929 010.7893 6462854 339.1520 153.2890 00.99854110    03

# Worst residual: 56.78 km
# MJD 60370.000000 (2024 Mar  1  0:00)
A112FqH = A112t8l
1 79944U 24999ZZY 24061.49919926  .00000000  00000-0  00000-0 0 22241
2 79944 036.0502 010.7268 6469106 339.6733 152.5194 00.99853553    05

# Worst residual: 58.13 km
# MJD 60371.000000 (2024 Mar  2  0:00)
A112FqH = A112t8l
1 79944U 24999ZZY 24062.49919926  .00000000  00000-0  00000-0 0 22242
2 79944 036.0995 010.6645 6474615 340.1957 151.7548 00.99861420    01

# Worst residual: 61.48 km
# MJD 60372.000000 (2024 Mar  3  0:00)
A112FqH = A112t8l
1 79944U 24999ZZY 24063.49919926  .00000000  00000-0  00000-0 0 22243
2 79944 036.1598 010.5892 6479849 340.7236 150.9916 00.99863190    00
